#aV2013  8 21  0  0  0.00000000     288 DD+AD WGS84 FIT  NGA
## 1754 259200.00000000   300.00000000 56525 0.0000000000000
+   31     1  2  3  4  5  6  7  8  9 10 11 12 13 14 15 16 17
+         18 19 20 21 22 23 24 25 26 27 28 29 31 32  0  0  0
+          0  0  0  0  0  0  0  0  0  0  0  0  0  0  0  0  0
+          0  0  0  0  0  0  0  0  0  0  0  0  0  0  0  0  0
+          0  0  0  0  0  0  0  0  0  0  0  0  0  0  0  0  0
++         2  2  2  2  2  2  2  2  2  2  2  2  2  2  2  2  2
++         2  2  2  2  2  2  2  2  2  2  2  2  2  2  2  0  0
++         0  0  0  0  0  0  0  0  0  0  0  0  0  0  0  0  0
++         0  0  0  0  0  0  0  0  0  0  0  0  0  0  0  0  0
++         0  0  0  0  0  0  0  0  0  0  0  0  0  0  0  0  0
%c cc cc ccc ccc cccc cccc cccc cccc ccccc ccccc ccccc ccccc
%c cc cc ccc ccc cccc cccc cccc cccc ccccc ccccc ccccc ccccc
%f  0.0000000  0.000000000  0.00000000000  0.000000000000000
%f  0.0000000  0.000000000  0.00000000000  0.000000000000000
%i    0    0    0    0      0      0      0      0         0
%i    0    0    0    0      0      0      0      0         0
/*      NGA, ST. LOUIS,MO.                                  
/*   EPHEMERIS COMPUTED FROM  1 DAYS OF DATA
/*   EPOCHA SMOOTHER  
/* CCCCCCCCCCCCCCCCCCCCCCCCCCCCCCCCCCCCCCCCCCCCCCCCCCCCCCCCC
*  2013  8 21  9 20  0.00000000                                                 
P  1 -21365.134422 -11149.531362  11256.226930     65.622746                    
V  1  -8115.234483 -11997.135837 -27129.291291      0.045198                    
P  2  11425.300293  22111.766655  10185.783323    447.561810                    
V  2 -10659.001418  -7012.386387  27288.176898      0.017909                    
P  3 -10312.436367 -12863.473259 -21384.315009    248.965544                    
V  3  23954.856461 -10118.800595  -5408.433585      0.050418                    
P  4   -115.150104  19048.481256  18107.161077    305.789341                    
V  4 -17937.722151 -15714.568239  16426.915283      0.102473                    
P  5   3934.492443  22202.773811 -13943.778320   -399.591919                    
V  5  -7439.518789  16319.791570  24076.432881     -0.001283                    
P  6  -3141.831082 -15316.278276 -21389.419701     13.082668                    
V  6  26287.908054  -7751.089864   2059.088134      0.195876                    
P  7 -16512.061583   2648.367260 -20658.951271    249.750582                    
V  7 -17165.162602 -19840.192538  10837.610148      0.042020                    
P  8  -8796.951731  11802.804923 -21918.935424      8.053555                    
V  8 -17339.103223 -22130.732948  -5518.556396      0.002173                    
P  9  -8083.584972  12963.676237 -22252.158017    262.788835                    
V  9 -18783.976942 -19281.672689  -4635.266264      0.026626                    
P 10  -8590.184445  24851.739234   1054.501482    -91.453053                    
V 10  -3079.226052  -2762.298280  31587.310971     -0.014075                    
P 11 -23498.822981 -12632.595794    562.308723   -412.260809                    
V 11   1265.343201  -4795.997281 -29934.210522     -0.035667                    
P 12  12744.574227   7809.475605  21926.407366    151.752647                    
V 12  -8954.802851  26384.727714  -3983.642176      0.021739                    
P 13 -26046.384383   5112.962676  -2381.432148     87.916784                    
V 13  -3092.494707  -1655.672004  31903.584756     -0.037357                    
P 14  13048.420026 -14619.734537  18068.211090    217.530614                    
V 14  22474.993323  -2268.184191 -18429.907791     -0.006667                    
P 15  22143.410993   4668.457599 -14133.648932   -133.230051                    
V 15 -16582.282876   7057.096767 -23434.731574     -0.018044                    
P 16  -2290.006056 -22084.515104 -14347.905059   -248.263628                    
V 16   7741.620508 -16625.219330  24730.682775      0.006798                    
P 17 -14647.536242  14656.959841  16699.884007    -13.388786                    
V 17 -20820.788825   2282.065220 -20770.013269     -0.038187                    
P 18  15702.880609 -15301.383016 -14324.063419    269.888368                    
V 18  -2315.727793  19278.001876 -22820.477709      0.019895                    
P 19 -18387.506239  -9339.506000 -17081.833324   -398.174766                    
V 19  20882.266257  -4459.484357 -19750.942558     -0.028681                    
P 20 -15894.286015  -1385.494526  21056.550663    117.095470                    
V 20   5903.844711 -26638.064948   2754.259663      0.024733                    
P 21  14895.490413  -6444.332467 -20515.410248   -314.669666              E     
V 21  18471.839411  20274.924597   6346.688502     -0.019596                    
P 22  10631.428340 -23781.182796  -4560.401699    181.007399                    
V 22   2128.315334   6988.063312 -30289.783714      0.017984                    
P 23 -25506.043345   -156.318887   8209.515258     55.544771                    
V 23   9404.157431  -4654.292494  29037.631257     -0.034964                    
P 24  21181.040458  14040.029235   7797.171347    -12.236695                    
V 24   4973.106106   8966.890396 -29576.774667     -0.006892                    
P 25  16094.852345  -7688.765887  19587.830130    138.038268                    
V 25  -5847.831082  24330.779474  14404.863028      0.045718                    
P 26   8471.685121  13657.900769 -21841.321297    152.340458                    
V 26 -25823.189516   3981.071054  -7443.584596      0.175439                    
P 27  -6846.699066 -13872.677421 -21600.291140    -26.635903                    
V 27  26541.912309  -6827.285816  -4019.971644     -0.047999                    
P 28 -12890.641321  21790.731368  -7136.764862    285.950613                    
V 28   1247.326516 -10046.037875 -30616.971350      0.030894                    
P 29  26150.303666  -4472.298834    650.037782    463.982005                    
V 29   -269.128440   2763.041846  31901.765828      0.031509                    
P 31   -818.603965 -19247.717446  18324.480225    323.979882                    
V 31  16382.759191  16172.040282  18156.703116      0.009238                    
P 32 -11005.650079 -12742.382333  20765.927414   -553.720891                    
V 32  10114.678119 -23997.059925  -8891.510135      0.020146                    
EOF
